0 SL-12 R/B(2)
1 23516U 95009F   13279.76695925  .00000067  00000-0  00000+0 0  2930
2 23516 063.8473 103.2091 0017112 245.8472 173.5648 02.13308286144804
0 SL-12 R/B(2)
1 23516U 95009F   13282.54171828  .00000064  00000-0  00000+0 0  2949
2 23516 063.8483 103.1112 0017097 245.9032 144.2735 02.13308378144863
0 SL-12 R/B(2)
1 23516U 95009F   13287.65909323  .00000080  00000-0  00000+0 0  2954
2 23516 063.8491 102.9301 0017060 246.2100 113.6571 02.13308467144967
0 SL-12 R/B(2)
1 23516U 95009F   13290.27594661  .00000056  00000-0  00000+0 0  2965
2 23516 063.8506 102.8384 0017135 246.0014 323.3703 02.13308578145027
0 SL-12 R/B(2)
1 23516U 95009F   13293.28830422  .00000026  00000-0  00000+0 0  2975
2 23516 063.8517 102.7322 0017150 245.8997 116.6960 02.13308577145098
